{"type": "FeatureCollection", "features": [ {"type": "Feature", "properties": {"norad_id": 29892, "name": "FENGYUN 1C DEB", "group": "fengyun-1c-debris", "lat": 25.025021226111416, "lon": 134.36262980838794, "alt_km": 805.0867746876866, "timestamp": "2025-12-16T21:38:57.446456+00:00", "meta": {"OBJECT_NAME": "FENGYUN 1C DEB", "OBJECT_ID": "1999-025GN", "EPOCH": "2025-12-16T08:23:41.707392", "MEAN_MOTION": 14.32255934, "ECCENTRICITY": 0.01916147, "INCLINATION": 99.18, "RA_OF_ASC_NODE": 138.1076, "ARG_OF_PERICENTER": 286.8907, "MEAN_ANOMALY": 130.4626, "EPHEMERIS_TYPE": 0, "CLASSIFICATION_TYPE": "U", "NORAD_CAT_ID": 29892, "ELEMENT_SET_NO": 999, "REV_AT_EPOCH": 96701, "BSTAR": 0.0023652574, "MEAN_MOTION_DOT": 7.767e-05, "MEAN_MOTION_DDOT": 0}, "tle": {"line1": "1 29892U 99025GN  25350.34978828  .00007767  00000+0  23653-2 0  9996", "line2": "2 29892  99.1800 138.1076 0191614 286.8907 130.4626 14.32255934967010"}}, "geometry": {"type": "Point", "coordinates": [134.36262980838794, 25.025021226111416]}}, {"type": "Feature", "properties": {"norad_id": 29893, "name": "FENGYUN 1C DEB", "group": "fengyun-1c-debris", "lat": 72.75738004347988, "lon": 57.56116691744567, "alt_km": 907.4260606465195, "timestamp": "2025-12-16T21:38:57.446466+00:00", "meta": {"OBJECT_NAME": "FENGYUN 1C DEB", "OBJECT_ID": "1999-025GP", "EPOCH": "2025-12-16T05:45:23.019264", "MEAN_MOTION": 13.79463118, "ECCENTRICITY": 0.01737695, "INCLINATION": 98.5535, "RA_OF_ASC_NODE": 85.9687, "ARG_OF_PERICENTER": 143.9845, "MEAN_ANOMALY": 246.0859, "EPHEMERIS_TYPE": 0, "CLASSIFICATION_TYPE": "U", "NORAD_CAT_ID": 29893, "ELEMENT_SET_NO": 999, "REV_AT_EPOCH": 95188, "BSTAR": 0.00018567474, "MEAN_MOTION_DOT": 1.77e-06, "MEAN_MOTION_DDOT": 0}, "tle": {"line1": "1 29893U 99025GP  25350.23984976  .00000177  00000+0  18567-3 0  9993", "line2": "2 29893  98.5535  85.9687 0173769 143.9845 246.0859 13.79463118951886"}}, "geometry": {"type": "Point", "coordinates": [57.56116691744567, 72.75738004347988]}}, {"type": "Feature", "properties": {"norad_id": 29894, "name": "FENGYUN 1C DEB", "group": "fengyun-1c-debris", "lat": 49.085744055673054, "lon": -123.64225736159447, "alt_km": 966.4216766440886, "timestamp": "2025-12-16T21:38:57.446475+00:00", "meta": {"OBJECT_NAME": "FENGYUN 1C DEB", "OBJECT_ID": "1999-025GQ", "EPOCH": "2025-12-16T02:02:55.059936", "MEAN_MOTION": 13.8097648, "ECCENTRICITY": 0.01683226, "INCLINATION": 99.4855, "RA_OF_ASC_NODE": 44.4152, "ARG_OF_PERICENTER": 36.2232, "MEAN_ANOMALY": 353.719, "EPHEMERIS_TYPE": 0, "CLASSIFICATION_TYPE": "U", "NORAD_CAT_ID": 29894, "ELEMENT_SET_NO": 999, "REV_AT_EPOCH": 95123, "BSTAR": 0.00049071977, "MEAN_MOTION_DOT": 5.32e-06, "MEAN_MOTION_DDOT": 0}, "tle": {"line1": "1 29894U 99025GQ  25350.08535949  .00000532  00000+0  49072-3 0  9999", "line2": "2 29894  99.4855  44.4152 0168322  36.2232 353.7190 13.80976480951238"}}, "geometry": {"type": "Point", "coordinates": [-123.64225736159447, 49.085744055673054]}}, {"type": "Feature", "properties": {"norad_id": 29895, "name": "FENGYUN 1C DEB", "group": "fengyun-1c-debris", "lat": -79.44363556369568, "lon": 169.0296000737104, "alt_km": 754.9642218039371, "timestamp": "2025-12-16T21:38:57.446486+00:00", "meta": {"OBJECT_NAME": "FENGYUN 1C DEB", "OBJECT_ID": "1999-025GR", "EPOCH": "2025-12-16T06:56:41.599104", "MEAN_MOTION": 14.08270444, "ECCENTRICITY": 0.02993295, "INCLINATION": 99.8848, "RA_OF_ASC_NODE": 99.0247, "ARG_OF_PERICENTER": 333.9965, "MEAN_ANOMALY": 78.112, "EPHEMERIS_TYPE": 0, "CLASSIFICATION_TYPE": "U", "NORAD_CAT_ID": 29895, "ELEMENT_SET_NO": 999, "REV_AT_EPOCH": 95574, "BSTAR": 0.0014820994, "MEAN_MOTION_DOT": 3.767e-05, "MEAN_MOTION_DDOT": 0}, "tle": {"line1": "1 29895U 99025GR  25350.28937036  .00003767  00000+0  14821-2 0  9991", "line2": "2 29895  99.8848  99.0247 0299329 333.9965  78.1120 14.08270444955747"}}, "geometry": {"type": "Point", "coordinates": [169.0296000737104, -79.44363556369568]}}, {"type": "Feature", "properties": {"norad_id": 29896, "name": "FENGYUN 1C DEB", "group": "fengyun-1c-debris", "lat": 59.335895642243095, "lon": -133.7486207143491, "alt_km": 856.4779046597905, "timestamp": "2025-12-16T21:38:57.446496+00:00", "meta": {"OBJECT_NAME": "FENGYUN 1C DEB", "OBJECT_ID": "1999-025GS", "EPOCH": "2025-12-15T12:31:29.255232", "MEAN_MOTION": 13.65370609, "ECCENTRICITY": 0.02398177, "INCLINATION": 99.4224, "RA_OF_ASC_NODE": 241.1737, "ARG_OF_PERICENTER": 94.7621, "MEAN_ANOMALY": 26.8142, "EPHEMERIS_TYPE": 0, "CLASSIFICATION_TYPE": "U", "NORAD_CAT_ID": 29896, "ELEMENT_SET_NO": 999, "REV_AT_EPOCH": 94080, "BSTAR": 0.00064367987, "MEAN_MOTION_DOT": 5.97e-06, "MEAN_MOTION_DDOT": 0}, "tle": {"line1": "1 29896U 99025GS  25349.52186638  .00000597  00000+0  64368-3 0  9991", "line2": "2 29896  99.4224 241.1737 0239817  94.7621  26.8142 13.65370609940804"}}, "geometry": {"type": "Point", "coordinates": [-133.7486207143491, 59.335895642243095]}}, {"type": "Feature", "properties": {"norad_id": 29897, "name": "FENGYUN 1C DEB", "group": "fengyun-1c-debris", "lat": -42.00974953732441, "lon": 26.807894044609974, "alt_km": 1063.680062183702, "timestamp": "2025-12-16T21:38:57.446506+00:00", "meta": {"OBJECT_NAME": "FENGYUN 1C DEB", "OBJECT_ID": "1999-025GT", "EPOCH": "2025-12-15T02:51:29.509056", "MEAN_MOTION": 13.57191294, "ECCENTRICITY": 0.02965732, "INCLINATION": 98.6297, "RA_OF_ASC_NODE": 213.1022, "ARG_OF_PERICENTER": 132.5228, "MEAN_ANOMALY": 19.8648, "EPHEMERIS_TYPE": 0, "CLASSIFICATION_TYPE": "U", "NORAD_CAT_ID": 29897, "ELEMENT_SET_NO": 999, "REV_AT_EPOCH": 92972, "BSTAR": 0.0017626618, "MEAN_MOTION_DOT": 1.638e-05, "MEAN_MOTION_DDOT": 0}, "tle": {"line1": "1 29897U 99025GT  25349.11909154  .00001638  00000+0  17627-2 0  9995", "line2": "2 29897  98.6297 213.1022 0296573 132.5228  19.8648 13.57191294929721"}}, "geometry": {"type": "Point", "coordinates": [26.807894044609974, -42.00974953732441]}}, {"type": "Feature", "properties": {"norad_id": 29898, "name": "FENGYUN 1C DEB", "group": "fengyun-1c-debris", "lat": 79.89407961131042, "lon": -143.1180487662547, "alt_km": 934.9787600538284, "timestamp": "2025-12-16T21:38:57.446517+00:00", "meta": {"OBJECT_NAME": "FENGYUN 1C DEB", "OBJECT_ID": "1999-025GU", "EPOCH": "2025-12-15T22:40:23.623104", "MEAN_MOTION": 13.70328299, "ECCENTRICITY": 0.04270958, "INCLINATION": 98.2226, "RA_OF_ASC_NODE": 341.8414, "ARG_OF_PERICENTER": 180.6385, "MEAN_ANOMALY": 239.9285, "EPHEMERIS_TYPE": 0, "CLASSIFICATION_TYPE": "U", "NORAD_CAT_ID": 29898, "ELEMENT_SET_NO": 999, "REV_AT_EPOCH": 93205, "BSTAR": 0.0012347504, "MEAN_MOTION_DOT": 2.047e-05, "MEAN_MOTION_DDOT": 0}, "tle": {"line1": "1 29898U 99025GU  25349.94471786  .00002047  00000+0  12348-2 0  9992", "line2": "2 29898  98.2226 341.8414 0427095 180.6385 239.9285 13.70328299932051"}}, "geometry": {"type": "Point", "coordinates": [-143.1180487662547, 79.89407961131042]}}, {"type": "Feature", "properties": {"norad_id": 29899, "name": "FENGYUN 1C DEB", "group": "fengyun-1c-debris", "lat": 10.89491157998242, "lon": 144.1240312259624, "alt_km": 970.5634901949916, "timestamp": "2025-12-16T21:38:57.446528+00:00", "meta": {"OBJECT_NAME": "FENGYUN 1C DEB", "OBJECT_ID": "1999-025GV", "EPOCH": "2025-12-16T03:38:34.884096", "MEAN_MOTION": 13.3749341, "ECCENTRICITY": 0.03535491, "INCLINATION": 98.662, "RA_OF_ASC_NODE": 145.1651, "ARG_OF_PERICENTER": 70.4192, "MEAN_ANOMALY": 293.4748, "EPHEMERIS_TYPE": 0, "CLASSIFICATION_TYPE": "U", "NORAD_CAT_ID": 29899, "ELEMENT_SET_NO": 999, "REV_AT_EPOCH": 92130, "BSTAR": 0.00018592675, "MEAN_MOTION_DOT": 1.07e-06, "MEAN_MOTION_DDOT": 0}, "tle": {"line1": "1 29899U 99025GV  25350.15179264  .00000107  00000+0  18593-3 0  9998", "line2": "2 29899  98.6620 145.1651 0353549  70.4192 293.4748 13.37493410921302"}}, "geometry": {"type": "Point", "coordinates": [144.1240312259624, 10.89491157998242]}}, {"type": "Feature", "properties": {"norad_id": 29901, "name": "FENGYUN 1C DEB", "group": "fengyun-1c-debris", "lat": 41.596760613851146, "lon": -11.019042995996445, "alt_km": 1334.9834676186074, "timestamp": "2025-12-16T21:38:57.446538+00:00", "meta": {"OBJECT_NAME": "FENGYUN 1C DEB", "OBJECT_ID": "1999-025GX", "EPOCH": "2025-12-15T10:59:29.258592", "MEAN_MOTION": 13.33255298, "ECCENTRICITY": 0.03791674, "INCLINATION": 98.7444, "RA_OF_ASC_NODE": 159.893, "ARG_OF_PERICENTER": 278.5287, "MEAN_ANOMALY": 134.6444, "EPHEMERIS_TYPE": 0, "CLASSIFICATION_TYPE": "U", "NORAD_CAT_ID": 29901, "ELEMENT_SET_NO": 999, "REV_AT_EPOCH": 91955, "BSTAR": 0.00044528169, "MEAN_MOTION_DOT": 2.89e-06, "MEAN_MOTION_DDOT": 0}, "tle": {"line1": "1 29901U 99025GX  25349.45797753  .00000289  00000+0  44528-3 0  9990", "line2": "2 29901  98.7444 159.8930 0379167 278.5287 134.6444 13.33255298919552"}}, "geometry": {"type": "Point", "coordinates": [-11.019042995996445, 41.596760613851146]}}, {"type": "Feature", "properties": {"norad_id": 29904, "name": "FENGYUN 1C DEB", "group": "fengyun-1c-debris", "lat": -35.206184883812085, "lon": -157.41126992294585, "alt_km": 748.5357952659533, "timestamp": "2025-12-16T21:38:57.446549+00:00", "meta": {"OBJECT_NAME": "FENGYUN 1C DEB", "OBJECT_ID": "1999-025HA", "EPOCH": "2025-12-16T02:20:52.572480", "MEAN_MOTION": 14.44493491, "ECCENTRICITY": 0.02075961, "INCLINATION": 99.0416, "RA_OF_ASC_NODE": 28.1842, "ARG_OF_PERICENTER": 308.6598, "MEAN_ANOMALY": 49.6174, "EPHEMERIS_TYPE": 0, "CLASSIFICATION_TYPE": "U", "NORAD_CAT_ID": 29904, "ELEMENT_SET_NO": 999, "REV_AT_EPOCH": 99112, "BSTAR": 0.0003296244, "MEAN_MOTION_DOT": 1.419e-05, "MEAN_MOTION_DDOT": 0}, "tle": {"line1": "1 29904U 99025HA  25350.09783070  .00001419  00000+0  32962-3 0  9997", "line2": "2 29904  99.0416  28.1842 0207596 308.6598  49.6174 14.44493491991124"}}, "geometry": {"type": "Point", "coordinates": [-157.41126992294585, -35.206184883812085]}}]}